[{"OBJECT_NAME":"FLOCK 4BE-29","OBJECT_ID":"2024-149AT","EPOCH":"2026-03-06T05:14:50.336160","MEAN_MOTION":15.40257896,"ECCENTRICITY":0.00019514,"INCLINATION":97.3848,"RA_OF_ASC_NODE":149.8126,"ARG_OF_PERICENTER":310.1031,"MEAN_ANOMALY":50.0044,"EPHEMERIS_TYPE":0,"CLASSIFICATION_TYPE":"U","NORAD_CAT_ID":60509,"ELEMENT_SET_NO":999,"REV_AT_EPOCH":8654,"BSTAR":0.00063576392,"MEAN_MOTION_DOT":0.00025551,"MEAN_MOTION_DDOT":0},{"OBJECT_NAME":"TRANSPORTER-11 OBJECT AU","OBJECT_ID":"2024-149AU","EPOCH":"2026-03-06T04:18:02.806560","MEAN_MOTION":15.3708668,"ECCENTRICITY":0.00025539,"INCLINATION":97.3776,"RA_OF_ASC_NODE":148.2965,"ARG_OF_PERICENTER":306.9337,"MEAN_ANOMALY":53.1673,"EPHEMERIS_TYPE":0,"CLASSIFICATION_TYPE":"U","NORAD_CAT_ID":60510,"ELEMENT_SET_NO":999,"REV_AT_EPOCH":8647,"BSTAR":0.00047376098,"MEAN_MOTION_DOT":0.00017133,"MEAN_MOTION_DDOT":0},{"OBJECT_NAME":"FLOCK 4BE-2","OBJECT_ID":"2024-149AV","EPOCH":"2026-03-06T04:37:05.144160","MEAN_MOTION":15.42828947,"ECCENTRICITY":0.00027797,"INCLINATION":97.3854,"RA_OF_ASC_NODE":150.3506,"ARG_OF_PERICENTER":286.1155,"MEAN_ANOMALY":73.9786,"EPHEMERIS_TYPE":0,"CLASSIFICATION_TYPE":"U","NORAD_CAT_ID":60511,"ELEMENT_SET_NO":999,"REV_AT_EPOCH":8657,"BSTAR":0.0010165445,"MEAN_MOTION_DOT":0.00044659,"MEAN_MOTION_DDOT":0},{"OBJECT_NAME":"FLOCK 4BE-13","OBJECT_ID":"2024-149AW","EPOCH":"2026-03-06T04:40:19.796448","MEAN_MOTION":15.38659812,"ECCENTRICITY":0.00034237,"INCLINATION":97.3766,"RA_OF_ASC_NODE":148.7545,"ARG_OF_PERICENTER":282.3434,"MEAN_ANOMALY":77.7428,"EPHEMERIS_TYPE":0,"CLASSIFICATION_TYPE":"U","NORAD_CAT_ID":60512,"ELEMENT_SET_NO":999,"REV_AT_EPOCH":8651,"BSTAR":0.00052943675,"MEAN_MOTION_DOT":0.00020167,"MEAN_MOTION_DDOT":0},{"OBJECT_NAME":"FLOCK 4BE-27","OBJECT_ID":"2024-149AX","EPOCH":"2026-03-06T05:27:41.516640","MEAN_MOTION":15.32496893,"ECCENTRICITY":0.00028087,"INCLINATION":97.387,"RA_OF_ASC_NODE":147.1582,"ARG_OF_PERICENTER":323.4674,"MEAN_ANOMALY":36.6376,"EPHEMERIS_TYPE":0,"CLASSIFICATION_TYPE":"U","NORAD_CAT_ID":60513,"ELEMENT_SET_NO":999,"REV_AT_EPOCH":8636,"BSTAR":0.00039794829,"MEAN_MOTION_DOT":0.00012417,"MEAN_MOTION_DDOT":0},{"OBJECT_NAME":"FLOCK 4BE-9","OBJECT_ID":"2024-149AY","EPOCH":"2026-03-06T04:15:21.210912","MEAN_MOTION":15.37434715,"ECCENTRICITY":0.00015483,"INCLINATION":97.3832,"RA_OF_ASC_NODE":148.6883,"ARG_OF_PERICENTER":316.8578,"MEAN_ANOMALY":43.2545,"EPHEMERIS_TYPE":0,"CLASSIFICATION_TYPE":"U","NORAD_CAT_ID":60514,"ELEMENT_SET_NO":999,"REV_AT_EPOCH":8647,"BSTAR":0.00048724022,"MEAN_MOTION_DOT":0.00017822,"MEAN_MOTION_DDOT":0},{"OBJECT_NAME":"FLOCK 4BE-8","OBJECT_ID":"2024-149AZ","EPOCH":"2026-03-06T04:16:52.616928","MEAN_MOTION":15.76582708,"ECCENTRICITY":0.00045948,"INCLINATION":97.3666,"RA_OF_ASC_NODE":151.7507,"ARG_OF_PERICENTER":241.8912,"MEAN_ANOMALY":118.1889,"EPHEMERIS_TYPE":0,"CLASSIFICATION_TYPE":"U","NORAD_CAT_ID":60515,"ELEMENT_SET_NO":999,"REV_AT_EPOCH":8670,"BSTAR":0.0018106331,"MEAN_MOTION_DOT":0.00297083,"MEAN_MOTION_DDOT":0},{"OBJECT_NAME":"FLOCK 4BE-6","OBJECT_ID":"2024-149BA","EPOCH":"2026-03-06T04:46:16.169664","MEAN_MOTION":15.36478486,"ECCENTRICITY":0.00023073,"INCLINATION":97.3838,"RA_OF_ASC_NODE":148.2402,"ARG_OF_PERICENTER":310.1409,"MEAN_ANOMALY":49.9633,"EPHEMERIS_TYPE":0,"CLASSIFICATION_TYPE":"U","NORAD_CAT_ID":60516,"ELEMENT_SET_NO":999,"REV_AT_EPOCH":8644,"BSTAR":0.00046806552,"MEAN_MOTION_DOT":0.00016596,"MEAN_MOTION_DDOT":0},{"OBJECT_NAME":"FLOCK 4BE-14","OBJECT_ID":"2024-149BB","EPOCH":"2026-03-06T04:47:43.590912","MEAN_MOTION":15.37526499,"ECCENTRICITY":0.00032766,"INCLINATION":97.3749,"RA_OF_ASC_NODE":148.3121,"ARG_OF_PERICENTER":306.2436,"MEAN_ANOMALY":53.8505,"EPHEMERIS_TYPE":0,"CLASSIFICATION_TYPE":"U","NORAD_CAT_ID":60517,"ELEMENT_SET_NO":999,"REV_AT_EPOCH":8648,"BSTAR":0.00052566114,"MEAN_MOTION_DOT":0.00019297,"MEAN_MOTION_DDOT":0},{"OBJECT_NAME":"FLOCK 4BE-1","OBJECT_ID":"2024-149BC","EPOCH":"2026-03-06T04:25:23.189088","MEAN_MOTION":15.38793321,"ECCENTRICITY":0.00032683,"INCLINATION":97.3824,"RA_OF_ASC_NODE":149.2306,"ARG_OF_PERICENTER":301.878,"MEAN_ANOMALY":58.2147,"EPHEMERIS_TYPE":0,"CLASSIFICATION_TYPE":"U","NORAD_CAT_ID":60518,"ELEMENT_SET_NO":999,"REV_AT_EPOCH":8651,"BSTAR":0.00052924136,"MEAN_MOTION_DOT":0.00020248,"MEAN_MOTION_DDOT":0},{"OBJECT_NAME":"FLOCK 4BE-28","OBJECT_ID":"2024-149BD","EPOCH":"2026-03-06T05:09:52.276032","MEAN_MOTION":15.40816466,"ECCENTRICITY":0.00035375,"INCLINATION":97.3789,"RA_OF_ASC_NODE":149.687,"ARG_OF_PERICENTER":301.5859,"MEAN_ANOMALY":58.5042,"EPHEMERIS_TYPE":0,"CLASSIFICATION_TYPE":"U","NORAD_CAT_ID":60519,"ELEMENT_SET_NO":999,"REV_AT_EPOCH":8656,"BSTAR":0.00061769997,"MEAN_MOTION_DOT":0.00025287,"MEAN_MOTION_DDOT":0},{"OBJECT_NAME":"IPERDRONE.0","OBJECT_ID":"2024-149BE","EPOCH":"2026-03-06T05:44:13.551072","MEAN_MOTION":15.54245674,"ECCENTRICITY":0.00028754,"INCLINATION":97.382,"RA_OF_ASC_NODE":154.3885,"ARG_OF_PERICENTER":246.2157,"MEAN_ANOMALY":113.8795,"EPHEMERIS_TYPE":0,"CLASSIFICATION_TYPE":"U","NORAD_CAT_ID":60520,"ELEMENT_SET_NO":999,"REV_AT_EPOCH":8686,"BSTAR":0.00079946098,"MEAN_MOTION_DOT":0.00052314,"MEAN_MOTION_DDOT":0},{"OBJECT_NAME":"TRANSPORTER-11 OBJECT BF","OBJECT_ID":"2024-149BF","EPOCH":"2026-03-06T05:50:55.670496","MEAN_MOTION":15.59370463,"ECCENTRICITY":0.00031867,"INCLINATION":97.3828,"RA_OF_ASC_NODE":155.5789,"ARG_OF_PERICENTER":247.2234,"MEAN_ANOMALY":112.8686,"EPHEMERIS_TYPE":0,"CLASSIFICATION_TYPE":"U","NORAD_CAT_ID":60521,"ELEMENT_SET_NO":999,"REV_AT_EPOCH":8693,"BSTAR":0.00094249433,"MEAN_MOTION_DOT":0.00074799,"MEAN_MOTION_DDOT":0},{"OBJECT_NAME":"CONNECTA IOT-2","OBJECT_ID":"2024-149BG","EPOCH":"2026-03-06T04:38:38.944320","MEAN_MOTION":15.22969176,"ECCENTRICITY":0.00056126,"INCLINATION":97.3896,"RA_OF_ASC_NODE":144.951,"ARG_OF_PERICENTER":340.132,"MEAN_ANOMALY":19.9697,"EPHEMERIS_TYPE":0,"CLASSIFICATION_TYPE":"U","NORAD_CAT_ID":60522,"ELEMENT_SET_NO":999,"REV_AT_EPOCH":8621,"BSTAR":0.00025444178,"MEAN_MOTION_DOT":5.91e-5,"MEAN_MOTION_DDOT":0},{"OBJECT_NAME":"PTD-R (TYVAK-0127)","OBJECT_ID":"2024-149BH","EPOCH":"2026-03-06T05:48:54.078912","MEAN_MOTION":15.68549421,"ECCENTRICITY":0.0004065,"INCLINATION":97.3774,"RA_OF_ASC_NODE":158.3082,"ARG_OF_PERICENTER":254.9216,"MEAN_ANOMALY":105.1595,"EPHEMERIS_TYPE":0,"CLASSIFICATION_TYPE":"U","NORAD_CAT_ID":60523,"ELEMENT_SET_NO":999,"REV_AT_EPOCH":8713,"BSTAR":0.0012052491,"MEAN_MOTION_DOT":0.00138219,"MEAN_MOTION_DDOT":0},{"OBJECT_NAME":"CONNECTA IOT-4","OBJECT_ID":"2024-149BJ","EPOCH":"2026-03-06T04:04:51.997728","MEAN_MOTION":15.38272544,"ECCENTRICITY":0.0004748,"INCLINATION":97.3842,"RA_OF_ASC_NODE":148.6069,"ARG_OF_PERICENTER":303.2345,"MEAN_ANOMALY":56.8445,"EPHEMERIS_TYPE":0,"CLASSIFICATION_TYPE":"U","NORAD_CAT_ID":60524,"ELEMENT_SET_NO":999,"REV_AT_EPOCH":8647,"BSTAR":0.00049579581,"MEAN_MOTION_DOT":0.00018644,"MEAN_MOTION_DDOT":0}]
